METHANESAT              
1 59101U 24043D   26106.27202012  .00000930  00000+0  84221-4 0  9992
2 59101  97.8351 237.0562 0009610 212.4677 147.5955 14.97833286115386
GOSAT-GW (IBUKI GW)     
1 64694U 25141A   26107.30414111  .00000321  00000+0  65200-4 0  9995
2 64694  98.0502  45.6217 0002028  99.9251 260.2183 14.67362610 42911
GHGSAT-C1               
1 46278U 20061G   26107.26388906  .00027613  00000+0  25869-3 0  9995
2 46278  97.2121 190.5825 0001049 187.4091 172.7155 15.67196280313926
GHGSAT-C12              
1 64529U 25135B   26107.29128489  .00002295  00000+0  11010-3 0  9994
2 64529  97.4669 222.6815 0005727  40.7154 319.4508 15.19886225 45575
GHGSAT-C13              
1 64548U 25135W   26107.25818846  .00002246  00000+0  10580-3 0  9991
2 64548  97.4698 223.1264 0001208  42.4990 317.6339 15.20553894 45598
GHGSAT-C2               
1 47509U 21006DA  26107.09854959  .00004125  00000+0  11588-3 0  9996
2 47509  97.2216 155.4147 0006102  44.5359 315.6376 15.37068937290461
GHGSAT-C3               
1 52737U 22057F   26107.24624509  .00004499  00000+0  14121-3 0  9995
2 52737  97.6505 250.6872 0005465 350.8031   9.3110 15.33569063216192
GHGSAT-C4               
1 52746U 22057Q   26107.26619800  .00004988  00000+0  15634-3 0  9998
2 52746  97.6431 249.6010 0005355 333.5128  26.5840 15.33555166216207
GHGSAT-C5               
1 52744U 22057N   26107.28428725  .00004462  00000+0  14016-3 0  9992
2 52744  97.6596 252.2301 0006180 344.3906  15.7144 15.33545185216208
GHGSAT-C6               
1 56204U 23054AC  26107.26287208  .00008983  00000+0  15538-3 0  9994
2 56204  97.3091  16.1491 0004153 254.2766 105.8029 15.51177101169005
GHGSAT-C7               
1 56209U 23054AH  26107.28755361  .00006930  00000+0  13156-3 0  9995
2 56209  97.3057  14.9339 0005749 251.4175 108.6452 15.48606763168966
GHGSAT-C8               
1 56186U 23054J   26107.23363878  .00008893  00000+0  15374-3 0  9996
2 56186  97.3040  15.4864 0002535 307.0243  53.0778 15.51200942168984
SENTINEL-5P             
1 42969U 17064A   26107.23125855  .00000026  00000+0  33212-4 0  9997
2 42969  98.7932  49.8004 0001276  84.3043 275.8278 14.19508272440919
ENMAP                   
1 52159U 22033C   26107.04214470 -.00000212  00000+0 -24014-4 0  9991
2 52159  97.9796 190.1599 0001756  97.7729 262.3679 14.75009781217642
PRISMA                  
1 44072U 19015A   26107.24103517  .00000839  00000+0  10807-3 0  9990
2 44072  97.8668 182.9138 0001441  81.4275 278.7102 14.83651403383019
SENTINEL-2A             
1 40697U 15028A   26107.30563418  .00000080  00000+0  46965-4 0  9999
2 40697  98.5636 183.0309 0001350  90.7733 269.3604 14.30820941565027
SENTINEL-2B             
1 42063U 17013A   26107.29838684  .00000019  00000+0  23714-4 0  9991
2 42063  98.5662 182.9379 0001247  94.3515 265.7810 14.30821284475933
SENTINEL-2C             
1 60989U 24157A   26107.19351877  .00000072  00000+0  44170-4 0  9996
2 60989  98.5640 182.8488 0001395 107.4354 252.6981 14.30813982 84269
LANDSAT 8               
1 39084U 13008A   26107.25245021  .00000227  00000+0  60309-4 0  9995
2 39084  98.1860 178.3319 0001183  95.8938 264.2395 14.57118952689024
LANDSAT 9               
1 49260U 21088A   26107.28694002  .00000226  00000+0  60108-4 0  9995
2 49260  98.1881 178.4368 0001158 101.8549 258.2780 14.57114758242135
TANAGER-1               
1 60507U 24149AR  26106.67894687  .00004954  00000+0  11021-3 0  9997
2 60507  97.3592 200.5610 0007660 159.8758 200.2794 15.44099128 93549
